STARLINK-3372           
1 51113U 22005K   26068.82049154  .00002084  00000+0  14904-3 0  9999
2 51113  53.2180 288.5375 0001483  95.1079 265.0082 15.08825229228891
CSC-1                   
1 58022U 23155G   26068.74030489  .00008819  00000+0  54557-3 0  9994
2 58022  97.5446 139.7305 0007504 212.9992 147.0770 15.10035960132723
